[{"OBJECT_NAME":"STARLINK-30363","OBJECT_ID":"2023-131N","EPOCH":"2026-03-09T22:00:01.999584","MEAN_MOTION":15.26650799,"ECCENTRICITY":0.00014125,"INCLINATION":43.0005,"RA_OF_ASC_NODE":156.2845,"ARG_OF_PERICENTER":285.7606,"MEAN_ANOMALY":160.1146,"EPHEMERIS_TYPE":0,"CLASSIFICATION_TYPE":"U","NORAD_CAT_ID":57744,"ELEMENT_SET_NO":999,"REV_AT_EPOCH":578,"BSTAR":0.001785891,"MEAN_MOTION_DOT":0.00047826,"MEAN_MOTION_DDOT":0},{"OBJECT_NAME":"COSMOS 2251 DEB","OBJECT_ID":"1993-036RB","EPOCH":"2026-03-09T01:08:04.800192","MEAN_MOTION":15.30699894,"ECCENTRICITY":0.00252965,"INCLINATION":73.7308,"RA_OF_ASC_NODE":76.2904,"ARG_OF_PERICENTER":263.9966,"MEAN_ANOMALY":95.8352,"EPHEMERIS_TYPE":0,"CLASSIFICATION_TYPE":"U","NORAD_CAT_ID":34410,"ELEMENT_SET_NO":999,"REV_AT_EPOCH":91089,"BSTAR":0.003018315,"MEAN_MOTION_DOT":0.00091531,"MEAN_MOTION_DDOT":0}]
